[{"OBJECT_NAME":"HULIANWANG DIGUI-17","OBJECT_ID":"2025-030G","EPOCH":"2026-03-03T13:23:39.338016","MEAN_MOTION":13.29338076,"ECCENTRICITY":7.458e-5,"INCLINATION":50.0048,"RA_OF_ASC_NODE":254.4178,"ARG_OF_PERICENTER":152.4854,"MEAN_ANOMALY":207.6058,"EPHEMERIS_TYPE":0,"CLASSIFICATION_TYPE":"U","NORAD_CAT_ID":62977,"ELEMENT_SET_NO":999,"REV_AT_EPOCH":5181,"BSTAR":6.6898111e-5,"MEAN_MOTION_DOT":-9.3e-7,"MEAN_MOTION_DDOT":0},{"OBJECT_NAME":"HULIANWANG DIGUI-18","OBJECT_ID":"2025-030H","EPOCH":"2026-03-03T14:59:51.337536","MEAN_MOTION":13.29338149,"ECCENTRICITY":7.872e-5,"INCLINATION":50.0052,"RA_OF_ASC_NODE":254.1148,"ARG_OF_PERICENTER":154.969,"MEAN_ANOMALY":205.1221,"EPHEMERIS_TYPE":0,"CLASSIFICATION_TYPE":"U","NORAD_CAT_ID":62978,"ELEMENT_SET_NO":999,"REV_AT_EPOCH":5182,"BSTAR":6.6792603e-5,"MEAN_MOTION_DOT":-9.3e-7,"MEAN_MOTION_DDOT":0},{"OBJECT_NAME":"HULIANWANG DIGUI-19","OBJECT_ID":"2025-030J","EPOCH":"2026-03-03T13:59:25.668672","MEAN_MOTION":13.29341195,"ECCENTRICITY":8.079e-5,"INCLINATION":50.0036,"RA_OF_ASC_NODE":254.5135,"ARG_OF_PERICENTER":148.5661,"MEAN_ANOMALY":211.5259,"EPHEMERIS_TYPE":0,"CLASSIFICATION_TYPE":"U","NORAD_CAT_ID":62979,"ELEMENT_SET_NO":999,"REV_AT_EPOCH":5181,"BSTAR":7.5338179e-5,"MEAN_MOTION_DOT":-8.9e-7,"MEAN_MOTION_DDOT":0},{"OBJECT_NAME":"HULIANWANG DIGUI-20","OBJECT_ID":"2025-086A","EPOCH":"2026-03-03T15:14:26.217888","MEAN_MOTION":13.24419955,"ECCENTRICITY":0.00017035,"INCLINATION":86.5125,"RA_OF_ASC_NODE":348.6745,"ARG_OF_PERICENTER":92.2708,"MEAN_ANOMALY":267.8621,"EPHEMERIS_TYPE":0,"CLASSIFICATION_TYPE":"U","NORAD_CAT_ID":63687,"ELEMENT_SET_NO":999,"REV_AT_EPOCH":4090,"BSTAR":6.5451562e-5,"MEAN_MOTION_DOT":4.3e-7,"MEAN_MOTION_DDOT":0},{"OBJECT_NAME":"HULIANWANG DIGUI-21","OBJECT_ID":"2025-086B","EPOCH":"2026-03-03T15:25:13.715040","MEAN_MOTION":13.24421558,"ECCENTRICITY":0.000159,"INCLINATION":86.5153,"RA_OF_ASC_NODE":348.7008,"ARG_OF_PERICENTER":94.7958,"MEAN_ANOMALY":265.3358,"EPHEMERIS_TYPE":0,"CLASSIFICATION_TYPE":"U","NORAD_CAT_ID":63688,"ELEMENT_SET_NO":999,"REV_AT_EPOCH":4089,"BSTAR":0.00010236274,"MEAN_MOTION_DOT":5.9e-7,"MEAN_MOTION_DDOT":0},{"OBJECT_NAME":"HULIANWANG DIGUI-22","OBJECT_ID":"2025-086C","EPOCH":"2026-03-03T13:47:19.912992","MEAN_MOTION":13.24421239,"ECCENTRICITY":0.00017763,"INCLINATION":86.5118,"RA_OF_ASC_NODE":348.6273,"ARG_OF_PERICENTER":92.4847,"MEAN_ANOMALY":267.6491,"EPHEMERIS_TYPE":0,"CLASSIFICATION_TYPE":"U","NORAD_CAT_ID":63689,"ELEMENT_SET_NO":999,"REV_AT_EPOCH":4088,"BSTAR":0.00012245134,"MEAN_MOTION_DOT":6.7e-7,"MEAN_MOTION_DDOT":0},{"OBJECT_NAME":"HULIANWANG DIGUI-23","OBJECT_ID":"2025-086D","EPOCH":"2026-03-03T14:09:01.003680","MEAN_MOTION":13.24422039,"ECCENTRICITY":0.00017284,"INCLINATION":86.516,"RA_OF_ASC_NODE":348.7581,"ARG_OF_PERICENTER":88.4574,"MEAN_ANOMALY":271.6758,"EPHEMERIS_TYPE":0,"CLASSIFICATION_TYPE":"U","NORAD_CAT_ID":63690,"ELEMENT_SET_NO":999,"REV_AT_EPOCH":4088,"BSTAR":0.00013911513,"MEAN_MOTION_DOT":7.4e-7,"MEAN_MOTION_DDOT":0},{"OBJECT_NAME":"HULIANWANG DIGUI-24","OBJECT_ID":"2025-086E","EPOCH":"2026-03-03T14:19:58.482624","MEAN_MOTION":13.24420156,"ECCENTRICITY":0.00017538,"INCLINATION":86.5167,"RA_OF_ASC_NODE":348.7821,"ARG_OF_PERICENTER":92.7163,"MEAN_ANOMALY":267.4171,"EPHEMERIS_TYPE":0,"CLASSIFICATION_TYPE":"U","NORAD_CAT_ID":63691,"ELEMENT_SET_NO":999,"REV_AT_EPOCH":4088,"BSTAR":0.00011869713,"MEAN_MOTION_DOT":6.6e-7,"MEAN_MOTION_DDOT":0},{"OBJECT_NAME":"HULIANWANG DIGUI-25","OBJECT_ID":"2025-086F","EPOCH":"2026-03-03T14:30:49.398624","MEAN_MOTION":13.24421623,"ECCENTRICITY":0.00016505,"INCLINATION":86.5106,"RA_OF_ASC_NODE":348.6024,"ARG_OF_PERICENTER":91.4191,"MEAN_ANOMALY":268.7132,"EPHEMERIS_TYPE":0,"CLASSIFICATION_TYPE":"U","NORAD_CAT_ID":63692,"ELEMENT_SET_NO":999,"REV_AT_EPOCH":4088,"BSTAR":0.0001070888,"MEAN_MOTION_DOT":6.1e-7,"MEAN_MOTION_DDOT":0},{"OBJECT_NAME":"HULIANWANG DIGUI-26","OBJECT_ID":"2025-086G","EPOCH":"2026-03-03T13:58:01.828704","MEAN_MOTION":13.24421035,"ECCENTRICITY":0.00017182,"INCLINATION":86.5154,"RA_OF_ASC_NODE":348.7357,"ARG_OF_PERICENTER":97.0536,"MEAN_ANOMALY":263.0793,"EPHEMERIS_TYPE":0,"CLASSIFICATION_TYPE":"U","NORAD_CAT_ID":63693,"ELEMENT_SET_NO":999,"REV_AT_EPOCH":4088,"BSTAR":0.00013093413,"MEAN_MOTION_DOT":7.1e-7,"MEAN_MOTION_DDOT":0},{"OBJECT_NAME":"HULIANWANG DIGUI-27","OBJECT_ID":"2025-086H","EPOCH":"2026-03-03T14:41:48.742944","MEAN_MOTION":13.24419999,"ECCENTRICITY":0.00017533,"INCLINATION":86.5115,"RA_OF_ASC_NODE":348.6342,"ARG_OF_PERICENTER":92.0612,"MEAN_ANOMALY":268.0723,"EPHEMERIS_TYPE":0,"CLASSIFICATION_TYPE":"U","NORAD_CAT_ID":63694,"ELEMENT_SET_NO":999,"REV_AT_EPOCH":4088,"BSTAR":6.9716799e-5,"MEAN_MOTION_DOT":4.5e-7,"MEAN_MOTION_DDOT":0},{"OBJECT_NAME":"HULIANWANG DIGUI-28","OBJECT_ID":"2025-086J","EPOCH":"2026-03-03T15:03:27.671040","MEAN_MOTION":13.24421295,"ECCENTRICITY":0.00017485,"INCLINATION":86.5079,"RA_OF_ASC_NODE":348.5342,"ARG_OF_PERICENTER":92.0533,"MEAN_ANOMALY":268.0801,"EPHEMERIS_TYPE":0,"CLASSIFICATION_TYPE":"U","NORAD_CAT_ID":63695,"ELEMENT_SET_NO":999,"REV_AT_EPOCH":4088,"BSTAR":5.8028449e-5,"MEAN_MOTION_DOT":4.0e-7,"MEAN_MOTION_DDOT":0},{"OBJECT_NAME":"HULIANWANG DIGUI-29","OBJECT_ID":"2025-086K","EPOCH":"2026-03-03T14:52:41.596032","MEAN_MOTION":13.24420164,"ECCENTRICITY":0.000163,"INCLINATION":86.5107,"RA_OF_ASC_NODE":348.6164,"ARG_OF_PERICENTER":92.2668,"MEAN_ANOMALY":267.8653,"EPHEMERIS_TYPE":0,"CLASSIFICATION_TYPE":"U","NORAD_CAT_ID":63696,"ELEMENT_SET_NO":999,"REV_AT_EPOCH":4088,"BSTAR":5.701174e-5,"MEAN_MOTION_DOT":3.9e-7,"MEAN_MOTION_DDOT":0},{"OBJECT_NAME":"HULIANWANG DIGUI-30","OBJECT_ID":"2025-121A","EPOCH":"2026-03-03T15:03:18.683712","MEAN_MOTION":13.24423332,"ECCENTRICITY":0.00019989,"INCLINATION":86.4944,"RA_OF_ASC_NODE":49.1715,"ARG_OF_PERICENTER":79.2971,"MEAN_ANOMALY":280.8388,"EPHEMERIS_TYPE":0,"CLASSIFICATION_TYPE":"U","NORAD_CAT_ID":64283,"ELEMENT_SET_NO":999,"REV_AT_EPOCH":3618,"BSTAR":2.9123639e-5,"MEAN_MOTION_DOT":2.7e-7,"MEAN_MOTION_DDOT":0},{"OBJECT_NAME":"HULIANWANG DIGUI-31","OBJECT_ID":"2025-121B","EPOCH":"2026-03-03T14:52:44.765184","MEAN_MOTION":13.24419535,"ECCENTRICITY":0.00020355,"INCLINATION":86.4965,"RA_OF_ASC_NODE":49.2241,"ARG_OF_PERICENTER":79.4928,"MEAN_ANOMALY":280.6435,"EPHEMERIS_TYPE":0,"CLASSIFICATION_TYPE":"U","NORAD_CAT_ID":64284,"ELEMENT_SET_NO":999,"REV_AT_EPOCH":3618,"BSTAR":5.4452901e-5,"MEAN_MOTION_DOT":3.8e-7,"MEAN_MOTION_DDOT":0},{"OBJECT_NAME":"HULIANWANG DIGUI-32","OBJECT_ID":"2025-121C","EPOCH":"2026-03-03T14:41:21.908832","MEAN_MOTION":13.24425253,"ECCENTRICITY":0.00020139,"INCLINATION":86.4906,"RA_OF_ASC_NODE":49.0572,"ARG_OF_PERICENTER":81.5742,"MEAN_ANOMALY":278.562,"EPHEMERIS_TYPE":0,"CLASSIFICATION_TYPE":"U","NORAD_CAT_ID":64285,"ELEMENT_SET_NO":999,"REV_AT_EPOCH":3618,"BSTAR":0.00012231525,"MEAN_MOTION_DOT":6.7e-7,"MEAN_MOTION_DDOT":0}]
