HULIANWANG DIGUI-17     
1 62977U 25030G   26062.55809419 -.00000093  00000+0  66898-4 0  9991
2 62977  50.0048 254.4178 0000745 152.4854 207.6058 13.29338076 51811
HULIANWANG DIGUI-18     
1 62978U 25030H   26062.62489974 -.00000093  00000+0  66793-4 0  9994
2 62978  50.0052 254.1148 0000787 154.9690 205.1221 13.29338149 51829
HULIANWANG DIGUI-19     
1 62979U 25030J   26062.58293598 -.00000089  00000+0  75338-4 0  9995
2 62979  50.0036 254.5135 0000807 148.5661 211.5259 13.29341195 51818
HULIANWANG DIGUI-20     
1 63687U 25086A   26062.63502567  .00000043  00000+0  65452-4 0  9993
2 63687  86.5125 348.6745 0001703  92.2708 267.8621 13.24419955 40903
HULIANWANG DIGUI-21     
1 63688U 25086B   26062.64251985  .00000059  00000+0  10236-3 0  9996
2 63688  86.5153 348.7008 0001590  94.7958 265.3358 13.24421558 40896
HULIANWANG DIGUI-22     
1 63689U 25086C   26062.57453603  .00000067  00000+0  12245-3 0  9991
2 63689  86.5118 348.6273 0001776  92.4847 267.6491 13.24421239 40887
HULIANWANG DIGUI-23     
1 63690U 25086D   26062.58959495  .00000074  00000+0  13912-3 0  9994
2 63690  86.5160 348.7581 0001728  88.4574 271.6758 13.24422039 40888
HULIANWANG DIGUI-24     
1 63691U 25086E   26062.59720466  .00000066  00000+0  11870-3 0  9992
2 63691  86.5167 348.7821 0001753  92.7163 267.4171 13.24420156 40883
HULIANWANG DIGUI-25     
1 63692U 25086F   26062.60473841  .00000061  00000+0  10709-3 0  9992
2 63692  86.5106 348.6024 0001650  91.4191 268.7132 13.24421623 40885
HULIANWANG DIGUI-26     
1 63693U 25086G   26062.58196561  .00000071  00000+0  13093-3 0  9991
2 63693  86.5154 348.7357 0001718  97.0536 263.0793 13.24421035 40887
HULIANWANG DIGUI-27     
1 63694U 25086H   26062.61236971  .00000045  00000+0  69717-4 0  9992
2 63694  86.5115 348.6342 0001753  92.0612 268.0723 13.24419999 40881
HULIANWANG DIGUI-28     
1 63695U 25086J   26062.62740360  .00000040  00000+0  58028-4 0  9994
2 63695  86.5079 348.5342 0001748  92.0533 268.0801 13.24421295 40885
HULIANWANG DIGUI-29     
1 63696U 25086K   26062.61992588  .00000039  00000+0  57012-4 0  9995
2 63696  86.5107 348.6164 0001630  92.2668 267.8653 13.24420164 40888
HULIANWANG DIGUI-30     
1 64283U 25121A   26062.62729958  .00000027  00000+0  29124-4 0  9998
2 64283  86.4944  49.1715 0001998  79.2971 280.8388 13.24423332 36181
HULIANWANG DIGUI-31     
1 64284U 25121B   26062.61996256  .00000038  00000+0  54453-4 0  9990
2 64284  86.4965  49.2241 0002035  79.4928 280.6435 13.24419535 36188
HULIANWANG DIGUI-32     
1 64285U 25121C   26062.61205913  .00000067  00000+0  12232-3 0  9994
2 64285  86.4906  49.0572 0002013  81.5742 278.5620 13.24425253 36189
